{
  "norad_id": 53289,
  "name": "STARLINK-4176",
  "history": [
    {
      "epoch": "2026-03-28T16:55:43.442688Z",
      "apogee_km": 540.6762641200758,
      "perigee_km": 538.8130018810434,
      "latitude_deg": -3.5098283877137856e-05,
      "longitude_deg": 13.84518844887968,
      "height_km": 540.655371877452,
      "semi_major_axis_km": 6917.881633000559,
      "eccentricity": 0.00013467,
      "inclination_deg": 53.2174,
      "raan_deg": 93.8982,
      "arg_perigee_deg": 90.9231,
      "mean_anomaly_deg": 269.1915,
      "mean_motion_rev_day": 15.08839593
    },
    {
      "epoch": "2026-03-29T04:03:25.564896Z",
      "apogee_km": 540.6706438034562,
      "perigee_km": 538.8415528682572,
      "latitude_deg": 3.0849227366271016e-05,
      "longitude_deg": -155.61839755116478,
      "height_km": 540.6587176893507,
      "semi_major_axis_km": 6917.893098335857,
      "eccentricity": 0.0001322,
      "inclination_deg": 53.2174,
      "raan_deg": 91.8171,
      "arg_perigee_deg": 90.4302,
      "mean_anomaly_deg": 269.6842,
      "mean_motion_rev_day": 15.08835842
    },
    {
      "epoch": "2026-03-30T00:43:26.556672Z",
      "apogee_km": 540.7269635761377,
      "perigee_km": 538.7802691566931,
      "latitude_deg": 2.3363004210289936e-05,
      "longitude_deg": -110.33699621565661,
      "height_km": 540.738605394405,
      "semi_major_axis_km": 6917.890616366415,
      "eccentricity": 0.0001407,
      "inclination_deg": 53.2179,
      "raan_deg": 87.9514,
      "arg_perigee_deg": 95.2636,
      "mean_anomaly_deg": 264.8517,
      "mean_motion_rev_day": 15.08836654
    },
    {
      "epoch": "2026-03-30T07:04:59.187072Z",
      "apogee_km": 540.7205465906736,
      "perigee_km": 538.7883795050448,
      "latitude_deg": -6.445265856763226e-05,
      "longitude_deg": 152.82652131991654,
      "height_km": 540.7165268641794,
      "semi_major_axis_km": 6917.891463047859,
      "eccentricity": 0.00013965,
      "inclination_deg": 53.2177,
      "raan_deg": 86.7621,
      "arg_perigee_deg": 93.939,
      "mean_anomaly_deg": 266.1761,
      "mean_motion_rev_day": 15.08836377
    },
    {
      "epoch": "2026-03-30T10:15:45.436608Z",
      "apogee_km": 540.7283243864713,
      "perigee_km": 538.777202757552,
      "latitude_deg": 4.623243212414144e-05,
      "longitude_deg": 104.40851937850614,
      "height_km": 540.709994151822,
      "semi_major_axis_km": 6917.889763572011,
      "eccentricity": 0.00014102,
      "inclination_deg": 53.2178,
      "raan_deg": 86.1673,
      "arg_perigee_deg": 93.6177,
      "mean_anomaly_deg": 266.4977,
      "mean_motion_rev_day": 15.08836933
    },
    {
      "epoch": "2026-03-30T22:58:50.565216Z",
      "apogee_km": 540.7279850331415,
      "perigee_km": 538.7731283673693,
      "latitude_deg": -3.590420758202935e-06,
      "longitude_deg": -89.2639997021211,
      "height_km": 540.6494908647331,
      "semi_major_axis_km": 6917.887556700255,
      "eccentricity": 0.00014129,
      "inclination_deg": 53.218,
      "raan_deg": 83.7885,
      "arg_perigee_deg": 90.1898,
      "mean_anomaly_deg": 269.9256,
      "mean_motion_rev_day": 15.08837655
    },
    {
      "epoch": "2026-03-31T16:28:05.064672Z",
      "apogee_km": 540.739270264281,
      "perigee_km": 538.7469207967688,
      "latitude_deg": 2.3317373387307015e-05,
      "longitude_deg": 4.436326521215923,
      "height_km": 540.5676580674068,
      "semi_major_axis_km": 6917.880095530525,
      "eccentricity": 0.000144,
      "inclination_deg": 53.2179,
      "raan_deg": 80.5174,
      "arg_perigee_deg": 85.9078,
      "mean_anomaly_deg": 274.2079,
      "mean_motion_rev_day": 15.08840096
    },
    {
      "epoch": "2026-04-01T16:18:52.155648Z",
      "apogee_km": 540.700248343247,
      "perigee_km": 538.7909127510165,
      "latitude_deg": 6.432134249277402e-06,
      "longitude_deg": 1.300065415428555,
      "height_km": 540.5793791770728,
      "semi_major_axis_km": 6917.8825805471315,
      "eccentricity": 0.000138,
      "inclination_deg": 53.2175,
      "raan_deg": 76.0567,
      "arg_perigee_deg": 86.2827,
      "mean_anomaly_deg": 273.8323,
      "mean_motion_rev_day": 15.08839283
    },
    {
      "epoch": "2026-04-02T16:09:38.640960Z",
      "apogee_km": 540.6686767209694,
      "perigee_km": 538.7856340978678,
      "latitude_deg": 2.9349610333283547e-06,
      "longitude_deg": -1.8343556407369712,
      "height_km": 540.5857943210581,
      "semi_major_axis_km": 6917.864155409418,
      "eccentricity": 0.0001361,
      "inclination_deg": 53.2175,
      "raan_deg": 71.5953,
      "arg_perigee_deg": 87.7429,
      "mean_anomaly_deg": 272.3719,
      "mean_motion_rev_day": 15.08845311
    },
    {
      "epoch": "2026-04-02T16:09:38.641824Z",
      "apogee_km": 540.6688842568947,
      "perigee_km": 538.7854265619426,
      "latitude_deg": 1.6709804285034498e-07,
      "longitude_deg": -1.8343613085514927,
      "height_km": 540.585786147681,
      "semi_major_axis_km": 6917.864155409418,
      "eccentricity": 0.00013613,
      "inclination_deg": 53.2175,
      "raan_deg": 71.5953,
      "arg_perigee_deg": 87.7429,
      "mean_anomaly_deg": 272.3719,
      "mean_motion_rev_day": 15.08845311
    },
    {
      "epoch": "2026-04-03T04:52:44.091840Z",
      "apogee_km": 540.7027020689138,
      "perigee_km": 538.7809153358548,
      "latitude_deg": -2.4308465781040733e-05,
      "longitude_deg": 164.4916951905931,
      "height_km": 540.6461435109766,
      "semi_major_axis_km": 6917.878808702384,
      "eccentricity": 0.0001389,
      "inclination_deg": 53.2179,
      "raan_deg": 69.2164,
      "arg_perigee_deg": 90.5135,
      "mean_anomaly_deg": 269.6016,
      "mean_motion_rev_day": 15.08840517
    },
    {
      "epoch": "2026-04-04T07:54:18.351648Z",
      "apogee_km": 540.7558064438417,
      "perigee_km": 538.781436179519,
      "latitude_deg": -1.9609836300304718e-05,
      "longitude_deg": 112.93342320367607,
      "height_km": 540.7368048418479,
      "semi_major_axis_km": 6917.90562131168,
      "eccentricity": 0.0001427,
      "inclination_deg": 53.2186,
      "raan_deg": 64.1608,
      "arg_perigee_deg": 94.2081,
      "mean_anomaly_deg": 265.9074,
      "mean_motion_rev_day": 15.08831745
    },
    {
      "epoch": "2026-04-05T14:06:37.610784Z",
      "apogee_km": 540.6695279920878,
      "perigee_km": 538.8404373518697,
      "latitude_deg": -4.303815317238448e-05,
      "longitude_deg": 12.963468058682258,
      "height_km": 540.6855426481455,
      "semi_major_axis_km": 6917.891982671978,
      "eccentricity": 0.0001322,
      "inclination_deg": 53.2185,
      "raan_deg": 58.5116,
      "arg_perigee_deg": 92.1731,
      "mean_anomaly_deg": 267.9412,
      "mean_motion_rev_day": 15.08836207
    },
    {
      "epoch": "2026-04-05T14:06:37.611648Z",
      "apogee_km": 540.6693896342485,
      "perigee_km": 538.8405757097089,
      "latitude_deg": -4.1192583707638723e-05,
      "longitude_deg": 12.96346582098917,
      "height_km": 540.6855374017306,
      "semi_major_axis_km": 6917.891982671978,
      "eccentricity": 0.00013218,
      "inclination_deg": 53.2185,
      "raan_deg": 58.5116,
      "arg_perigee_deg": 92.1731,
      "mean_anomaly_deg": 267.9412,
      "mean_motion_rev_day": 15.08836207
    },
    {
      "epoch": "2026-04-06T06:00:29.015712Z",
      "apogee_km": 540.7101600600854,
      "perigee_km": 538.8080153518094,
      "latitude_deg": 4.42248576113536e-05,
      "longitude_deg": 130.87335263337596,
      "height_km": 540.7085316093517,
      "semi_major_axis_km": 6917.896087705947,
      "eccentricity": 0.00013748,
      "inclination_deg": 53.2188,
      "raan_deg": 55.5385,
      "arg_perigee_deg": 93.2317,
      "mean_anomaly_deg": 266.8833,
      "mean_motion_rev_day": 15.08834864
    },
    {
      "epoch": "2026-04-07T13:48:11.991456Z",
      "apogee_km": 540.6951921871541,
      "perigee_km": 538.7996918500403,
      "latitude_deg": 1.672420139860351e-05,
      "longitude_deg": 6.693177658208651,
      "height_km": 540.7072438222872,
      "semi_major_axis_km": 6917.884442018597,
      "eccentricity": 0.000137,
      "inclination_deg": 53.2184,
      "raan_deg": 49.5932,
      "arg_perigee_deg": 93.8722,
      "mean_anomaly_deg": 266.2427,
      "mean_motion_rev_day": 15.08838674
    },
    {
      "epoch": "2026-04-08T13:38:59.260416Z",
      "apogee_km": 540.7778500521272,
      "perigee_km": 538.7186723252807,
      "latitude_deg": 2.7721219159726843e-05,
      "longitude_deg": 3.5557893710923603,
      "height_km": 540.6219667802256,
      "semi_major_axis_km": 6917.885261188703,
      "eccentricity": 0.00014883,
      "inclination_deg": 53.2192,
      "raan_deg": 45.1321,
      "arg_perigee_deg": 88.7751,
      "mean_anomaly_deg": 271.3412,
      "mean_motion_rev_day": 15.08838406
    },
    {
      "epoch": "2026-04-09T13:29:45.707712Z",
      "apogee_km": 540.7064453374023,
      "perigee_km": 538.7542231756743,
      "latitude_deg": 1.3325402703982655e-05,
      "longitude_deg": 0.4216152135260027,
      "height_km": 540.6157101331258,
      "semi_major_axis_km": 6917.867334256538,
      "eccentricity": 0.0001411,
      "inclination_deg": 53.2193,
      "raan_deg": 40.6708,
      "arg_perigee_deg": 89.3859,
      "mean_anomaly_deg": 270.7295,
      "mean_motion_rev_day": 15.08844271
    },
    {
      "epoch": "2026-04-10T05:23:37.444416Z",
      "apogee_km": 540.8293928355224,
      "perigee_km": 538.6591151285229,
      "latitude_deg": -2.7159157865109028e-05,
      "longitude_deg": 118.32781817762772,
      "height_km": 540.7310692031697,
      "semi_major_axis_km": 6917.881253982023,
      "eccentricity": 0.00015686,
      "inclination_deg": 53.2224,
      "raan_deg": 37.6955,
      "arg_perigee_deg": 94.803,
      "mean_anomaly_deg": 265.3141,
      "mean_motion_rev_day": 15.08839717
    }
  ]
}